NORAD_CAT_ID,OBJECT_NAME,OBJECT_TYPE,EPOCH,MEAN_MOTION,ECCENTRICITY,INCLINATION,RA_OF_ASC_NODE,ARG_OF_PERICENTER,MEAN_ANOMALY,BSTAR,MEAN_MOTION_DOT,MEAN_MOTION_DDOT,TLE_LINE0,TLE_LINE1,TLE_LINE2,SEMIMAJOR_AXIS,PERIOD,APOGEE,PERIGEE,DECAYED
52880.0,STARLINK-4186,PAYLOAD,2024-08-02 21:05:31,15.08832907,0.0001469,53.2169,114.9521,107.4584,252.6569,6.6904e-05,7.77e-06,0.0,0 STARLINK-4186,1 52880U 22062BC  24215.87883971  .00000777  00000-0  66904-4 0  9990,2 52880  53.2169 114.9521 0001469 107.4584 252.6569 15.08832907118427,6917.902,95.438,540.783,538.751,0.0
52880.0,STARLINK-4186,PAYLOAD,2024-08-02 22:40:54,15.08835677,0.000144,53.2167,114.6547,105.0552,255.06,5.0336e-05,5.13e-06,0.0,0 STARLINK-4186,1 52880U 22062BC  24215.94507774  .00000513  00000-0  50336-4 0  9992,2 52880  53.2167 114.6547 0001440 105.0552 255.0600 15.08835677117944,6917.894,95.438,540.755,538.762,0.0
52880.0,STARLINK-4186,PAYLOAD,2024-08-03 09:48:36,15.08838376,0.0001378,53.2165,112.5745,109.9263,250.1877,0.00011926,1.611e-05,0.0,0 STARLINK-4186,1 52880U 22062BC  24216.40875755  .00001611  00000-0  11926-3 0  9992,2 52880  53.2165 112.5745 0001378 109.9263 250.1877 15.08838376118011,6917.885,95.438,540.704,538.797,0.0
52880.0,STARLINK-4186,PAYLOAD,2024-08-03 22:31:41,15.08845715,0.0001534,53.2169,110.199,122.8462,237.2678,0.00035525,5.371e-05,0.0,0 STARLINK-4186,1 52880U 22062BC  24216.93867773  .00005371  00000-0  35525-3 0  9999,2 52880  53.2169 110.1990 0001534 122.8462 237.2678 15.08845715118098,6917.863,95.437,540.789,538.667,0.0
52880.0,STARLINK-4186,PAYLOAD,2024-08-04 03:17:50,15.08856475,0.0001448,53.2171,109.3043,115.2628,244.8514,0.00078603,0.00012249,0.0,0 STARLINK-4186,1 52880U 22062BC  24217.13739579  .00012249  00000-0  78603-3 0  9990,2 52880  53.2171 109.3043 0001448 115.2628 244.8514 15.08856475118610,6917.83,95.437,540.697,538.693,0.0
52880.0,STARLINK-4186,PAYLOAD,2024-08-04 09:39:23,15.08849128,0.0001171,53.2161,108.1082,72.0734,288.0386,0.00088447,0.0001382,0.0,0 STARLINK-4186,1 52880U 22062BC  24217.40235707  .00013820  00000-0  88447-3 0  9997,2 52880  53.2161 108.1082 0001171  72.0734 288.0386 15.08849128118658,6917.852,95.437,540.528,538.907,0.0
52880.0,STARLINK-4186,PAYLOAD,2024-08-04 20:47:05,15.08843001,0.0002116,53.2173,106.0308,95.7099,264.4134,0.00028803,4.299e-05,0.0,0 STARLINK-4186,1 52880U 22062BC  24217.86604153  .00004299  00000-0  28803-3 0  9992,2 52880  53.2173 106.0308 0002116  95.7099 264.4134 15.08843001118726,6917.871,95.437,541.2,538.272,0.0
52880.0,STARLINK-4186,PAYLOAD,2024-08-04 22:22:29,15.08844262,0.000204,53.2165,105.7341,90.7446,269.378,0.00023008,3.376e-05,0.0,0 STARLINK-4186,1 52880U 22062BC  24217.93228101  .00003376  00000-0  23008-3 0  9992,2 52880  53.2165 105.7341 0002040  90.7446 269.3780 15.08844262118245,6917.867,95.437,541.144,538.321,0.0
52880.0,STARLINK-4186,PAYLOAD,2024-08-05 01:33:14,15.08859126,0.0001492,53.217,105.1428,98.1448,261.9714,0.00053393,8.224e-05,0.0,0 STARLINK-4186,1 52880U 22062BC  24218.06475494  .00008224  00000-0  53393-3 0  9993,2 52880  53.2170 105.1428 0001492  98.1448 261.9714 15.08859126118751,6917.822,95.436,540.719,538.655,0.0
52880.0,STARLINK-4186,PAYLOAD,2024-08-05 20:37:53,15.08829589,0.0001358,53.2171,101.5734,91.0789,269.0359,-0.00011051,-2.046e-05,0.0,0 STARLINK-4186,1 52880U 22062BC  24218.85964511 -.00002046  00000-0 -11051-3 0  9996,2 52880  53.2171 101.5734 0001358  91.0789 269.0359 15.08829589118870,6917.912,95.438,540.717,538.838,0.0
52880.0,STARLINK-4186,PAYLOAD,2024-08-05 22:13:16,15.08831525,0.0001373,53.2167,101.2728,85.2519,274.863,-0.00010747,-1.997e-05,0.0,0 STARLINK-4186,1 52880U 22062BC  24218.92588491 -.00001997  00000-0 -10747-3 0  9998,2 52880  53.2167 101.2728 0001373  85.2519 274.8630 15.08831525118394,6917.906,95.438,540.721,538.821,0.0
52880.0,STARLINK-4186,PAYLOAD,2024-08-05 23:48:39,15.08834773,0.0001406,53.2168,100.9754,83.8836,276.2316,-2.6605e-05,-7.11e-06,0.0,0 STARLINK-4186,1 52880U 22062BC  24218.99212427 -.00000711  00000-0 -26605-4 0  9992,2 52880  53.2168 100.9754 0001406  83.8836 276.2316 15.08834773118400,6917.896,95.438,540.734,538.789,0.0
52880.0,STARLINK-4186,PAYLOAD,2024-08-06 20:28:40,15.08841834,0.000136,53.2159,97.1137,83.1194,276.9953,0.00045687,6.991e-05,0.0,0 STARLINK-4186,1 52880U 22062BC  24219.85324592  .00006991  00000-0  45687-3 0  9999,2 52880  53.2159  97.1137 0001360  83.1194 276.9953 15.08841834119020,6917.875,95.437,540.681,538.799,0.0
52880.0,STARLINK-4186,PAYLOAD,2024-08-06 22:04:03,15.08845421,0.0001403,53.2158,96.8158,81.1299,278.9851,0.00054502,8.398e-05,0.0,0 STARLINK-4186,1 52880U 22062BC  24219.91948535  .00008398  00000-0  54502-3 0  9994,2 52880  53.2158  96.8158 0001403  81.1299 278.9851 15.08845421118541,6917.864,95.437,540.699,538.758,0.0
52880.0,STARLINK-4186,PAYLOAD,2024-08-07 01:14:49,15.08855959,0.0001317,53.2157,96.2189,87.1628,272.9515,0.00082964,0.00012946,0.0,0 STARLINK-4186,1 52880U 22062BC  24220.05196218  .00012946  00000-0  82964-3 0  9991,2 52880  53.2157  96.2189 0001317  87.1628 272.9515 15.08855959119059,6917.832,95.437,540.608,538.786,0.0
52880.0,STARLINK-4186,PAYLOAD,2024-08-07 20:19:26,15.08852172,0.0002055,53.2166,92.6478,133.9697,226.1465,0.00025192,3.725e-05,0.0,0 STARLINK-4186,1 52880U 22062BC  24220.84683618  .00003725  00000-0  25192-3 0  9998,2 52880  53.2166  92.6478 0002055 133.9697 226.1465 15.08852172119178,6917.843,95.437,541.13,538.287,0.0
52880.0,STARLINK-4186,PAYLOAD,2024-08-08 01:05:35,15.08858634,0.0001647,53.2166,91.7502,119.6236,240.492,0.00041763,6.368e-05,0.0,0 STARLINK-4186,1 52880U 22062BC  24221.04555353  .00006368  00000-0  41763-3 0  9993,2 52880  53.2166  91.7502 0001647 119.6236 240.4920 15.08858634118715,6917.823,95.436,540.828,538.549,0.0
52880.0,STARLINK-4186,PAYLOAD,2024-08-08 21:45:36,15.08854262,0.0001115,53.2163,87.8924,103.6763,256.4353,0.00022426,3.284e-05,0.0,0 STARLINK-4186,1 52880U 22062BC  24221.90667808  .00003284  00000-0  22426-3 0  9996,2 52880  53.2163  87.8924 0001115 103.6763 256.4353 15.08854262119333,6917.837,95.437,540.473,538.93,0.0
52880.0,STARLINK-4186,PAYLOAD,2024-08-09 00:56:22,15.08855252,0.0001274,53.2155,87.2939,109.456,250.657,0.00036127,5.469e-05,0.0,0 STARLINK-4186,1 52880U 22062BC  24222.03915215  .00005469  00000-0  36127-3 0  9999,2 52880  53.2155  87.2939 0001274 109.4560 250.6570 15.08855252118863,6917.834,95.437,540.58,538.817,0.0
52880.0,STARLINK-4186,PAYLOAD,2024-08-09 20:01:01,15.08837405,0.0001345,53.2167,83.7283,89.5638,270.5509,0.00029969,4.485e-05,0.0,0 STARLINK-4186,1 52880U 22062BC  24222.83403950  .00004485  00000-0  29969-3 0  9998,2 52880  53.2167  83.7283 0001345  89.5638 270.5509 15.08837405119473,6917.888,95.438,540.684,538.823,0.0
52880.0,STARLINK-4186,PAYLOAD,2024-08-09 21:36:24,15.08841266,0.0001357,53.2169,83.4295,95.1212,264.9935,0.00045929,7.029e-05,0.0,0 STARLINK-4186,1 52880U 22062BC  24222.90027914  .00007029  00000-0  45929-3 0  9999,2 52880  53.2169  83.4295 0001357  95.1212 264.9935 15.08841266118995,6917.877,95.437,540.68,538.803,0.0
52880.0,STARLINK-4186,PAYLOAD,2024-08-10 15:05:39,15.08831992,0.0001033,53.2167,80.1527,109.2411,250.8693,0.00064227,9.946e-05,0.0,0 STARLINK-4186,1 52880U 22062BC  24223.62892508  .00009946  00000-0  64227-3 0  9990,2 52880  53.2167  80.1527 0001033 109.2411 250.8693 15.08831992119108,6917.905,95.438,540.484,539.055,0.0
52880.0,STARLINK-4186,PAYLOAD,2024-08-10 19:51:48,15.08847682,0.000156,53.2158,79.2609,112.2529,247.8628,0.00060517,9.358e-05,0.0,0 STARLINK-4186,1 52880U 22062BC  24223.82764229  .00009358  00000-0  60517-3 0  9995,2 52880  53.2158  79.2609 0001560 112.2529 247.8628 15.08847682119137,6917.857,95.437,540.801,538.643,0.0
52880.0,STARLINK-4186,PAYLOAD,2024-08-10 21:27:11,15.08847975,0.0001218,53.2159,78.9715,85.3839,274.7292,0.0011464,0.00018008,0.0,0 STARLINK-4186,1 52880U 22062BC  24223.89388456  .00018008  00000-0  11464-2 0  9994,2 52880  53.2159  78.9715 0001218  85.3839 274.7292 15.08847975119632,6917.856,95.437,540.564,538.878,0.0
52880.0,STARLINK-4186,PAYLOAD,2024-08-11 13:21:03,15.08844604,0.000116,53.2159,76.0008,91.1956,268.917,0.00057541,8.883e-05,0.0,0 STARLINK-4186,1 52880U 22062BC  24224.55628810  .00008883  00000-0  57541-3 0  9996,2 52880  53.2159  76.0008 0001160  91.1956 268.9170 15.08844604119734,6917.866,95.437,540.534,538.929,0.0
52880.0,STARLINK-4186,PAYLOAD,2024-08-12 06:50:17,15.08857635,0.0001259,53.2173,72.7273,88.1936,271.92,0.00086771,0.00013555,0.0,0 STARLINK-4186,1 52880U 22062BC  24225.28492517  .00013555  00000-0  86771-3 0  9999,2 52880  53.2173  72.7273 0001259  88.1936 271.9200 15.08857635119354,6917.826,95.436,540.562,538.821,0.0
52880.0,STARLINK-4186,PAYLOAD,2024-08-13 00:19:30,15.08888612,0.000121,53.2174,69.4569,86.7403,273.3728,0.001316,0.00020746,0.0,0 STARLINK-4186,1 52880U 22062BC  24226.01354970  .00020746  00000-0  13160-2 0  9992,2 52880  53.2174  69.4569 0001210  86.7403 273.3728 15.08888612119952,6917.732,95.434,540.434,538.76,0.0
52880.0,STARLINK-4186,PAYLOAD,2024-08-13 13:02:38,15.08758018,0.0002194,53.2154,67.0762,80.7809,279.3431,-0.0012576,-0.00020203,0.0,0 STARLINK-4186,1 52880U 22062BC  24226.54350454 -.00020203  00000-0 -12576-2 0  9993,2 52880  53.2154  67.0762 0002194  80.7809 279.3431 15.08758018120039,6918.131,95.443,541.514,538.478,0.0
52880.0,STARLINK-4186,PAYLOAD,2024-08-13 22:34:57,15.08824266,0.0001195,53.2178,65.2923,121.5116,238.5993,0.00090829,0.00014191,0.0,0 STARLINK-4186,1 52880U 22062BC  24226.94094638  .00014191  00000-0  90829-3 0  9991,2 52880  53.2178  65.2923 0001195 121.5116 238.5993 15.08824266119609,6917.928,95.439,540.62,538.967,0.0
52880.0,STARLINK-4186,PAYLOAD,2024-08-14 00:10:21,15.08822489,0.0001214,53.2164,64.994,116.207,243.9047,0.0012793,0.00020121,0.0,0 STARLINK-4186,1 52880U 22062BC  24227.00718892  .00020121  00000-0  12793-2 0  9997,2 52880  53.2164  64.9940 0001214 116.2070 243.9047 15.08822489120103,6917.934,95.439,540.639,538.959,0.0
